{
    "links": {
        "self": "http://www.neowsapp.com/rest/v1/neo/3788118?api_key=iIulBulltgU6a56xZRHN4H3l9WmuAYTsLGpBGhQ2"
    },
    "id": "3788118",
    "neo_reference_id": "3788118",
    "name": "(2017 UZ7)",
    "designation": "2017 UZ7",
    "nasa_jpl_url": "http://ssd.jpl.nasa.gov/sbdb.cgi?sstr=3788118",
    "absolute_magnitude_h": 21.6,
    "estimated_diameter": {
        "kilometers": {
            "estimated_diameter_min": 0.1272198785,
            "estimated_diameter_max": 0.2844722965
        },
        "meters": {
            "estimated_diameter_min": 127.2198785394,
            "estimated_diameter_max": 284.4722965033
        },
        "miles": {
            "estimated_diameter_min": 0.0790507431,
            "estimated_diameter_max": 0.1767628354
        },
        "feet": {
            "estimated_diameter_min": 417.3880663071,
            "estimated_diameter_max": 933.3080892598
        }
    },
    "is_potentially_hazardous_asteroid": true,
    "close_approach_data": [
        {
            "close_approach_date": "1901-10-13",
            "close_approach_date_full": "1901-Oct-13 14:34",
            "epoch_date_close_approach": -2152776360000,
            "relative_velocity": {
                "kilometers_per_second": "26.5352390386",
                "kilometers_per_hour": "95526.8605390021",
                "miles_per_hour": "59356.6762054705"
            },
            "miss_distance": {
                "astronomical": "0.4169835159",
                "lunar": "162.2065876851",
                "kilometers": "62379845.803751133",
                "miles": "38761038.8091983154"
            },
            "orbiting_body": "Earth"
        },
        {
            "close_approach_date": "2011-06-09",
            "close_approach_date_full": "2011-Jun-09 21:13",
            "epoch_date_close_approach": 1307653980000,
            "relative_velocity": {
                "kilometers_per_second": "12.9917317124",
                "kilometers_per_hour": "46770.2341645936",
                "miles_per_hour": "29061.2046674387"
            },
            "miss_distance": {
                "astronomical": "0.0801467049",
                "lunar": "31.1770682061",
                "kilometers": "11989776.340558563",
                "miles": "7450101.5522236494"
            },
            "orbiting_body": "Mars"
        },
        {
            "close_approach_date": "2017-10-02",
            "close_approach_date_full": "2017-Oct-02 02:36",
            "epoch_date_close_approach": 1506911760000,
            "relative_velocity": {
                "kilometers_per_second": "19.5094829582",
                "kilometers_per_hour": "70234.1386494037",
                "miles_per_hour": "43640.7624291253"
            },
            "miss_distance": {
                "astronomical": "0.1764962279",
                "lunar": "68.6570326531",
                "kilometers": "26403459.756874573",
                "miles": "16406349.1204041874"
            },
            "orbiting_body": "Earth"
        },
        {
            "close_approach_date": "2130-05-18",
            "close_approach_date_full": "2130-May-18 00:54",
            "epoch_date_close_approach": 5060969640000,
            "relative_velocity": {
                "kilometers_per_second": "18.4153724361",
                "kilometers_per_hour": "66295.3407701238",
                "miles_per_hour": "41193.3466024139"
            },
            "miss_distance": {
                "astronomical": "0.1709239084",
                "lunar": "66.4894003676",
                "kilometers": "25569852.628715108",
                "miles": "15888369.6699921704"
            },
            "orbiting_body": "Earth"
        }
    ],
    "orbital_data": {
        "orbit_id": "6",
        "orbit_determination_date": "2019-03-20 07:00:34",
        "first_observation_date": "2017-10-20",
        "last_observation_date": "2017-12-07",
        "data_arc_in_days": 48,
        "observations_used": 42,
        "orbit_uncertainty": "6",
        "minimum_orbit_intersection": ".0172766",
        "jupiter_tisserand_invariant": "3.405",
        "epoch_osculation": "2459000.5",
        "eccentricity": ".6119606897399205",
        "semi_major_axis": "2.181916167042821",
        "inclination": "5.356991143579305",
        "ascending_node_longitude": "186.4260329401177",
        "orbital_period": "1177.214268144808",
        "perihelion_distance": ".8466692445046127",
        "perihelion_argument": "115.0421079207804",
        "aphelion_distance": "3.517163089581029",
        "perihelion_time": "2459165.196297758661",
        "mean_anomaly": "309.6347701539881",
        "mean_motion": ".3058066910515195",
        "equinox": "J2000",
        "orbit_class": {
            "orbit_class_type": "APO",
            "orbit_class_description": "Near-Earth asteroid orbits which cross the Earth’s orbit similar to that of 1862 Apollo",
            "orbit_class_range": "a (semi-major axis) > 1.0 AU; q (perihelion) < 1.017 AU"
        }
    },
    "is_sentry_object": false
}